0 FENGYUN 1C DEB
1 38157U 99025ERE 13285.34883662  .00001363  00000-0  53281-3 0   792
2 38157 099.7298 121.1818 0313639 162.6495 198.7047 14.07841029141390
0 FENGYUN 1C DEB
1 38157U 99025ERE 13287.77686405  .00001394  00000-0  54029-3 0   804
2 38157 099.7284 123.8110 0316027 156.2602 264.2721 14.07854338141735
0 FENGYUN 1C DEB
1 38157U 99025ERE 13291.75693406  .00001089  00000-0  42689-3 0   817
2 38157 099.7295 128.1039 0315829 145.2617 276.4919 14.07862985142291
0 FENGYUN 1C DEB
1 38157U 99025ERE 13294.52232793  .00001745  00000-0  67120-3 0   820
2 38157 099.7295 131.0875 0315854 137.6753 252.3947 14.07866565142681
0 FENGYUN 1C DEB
1 38157U 99025ERE 13295.51766839  .00001727  00000-0  66268-3 0   836
2 38157 099.7266 132.1568 0316663 134.8820 257.1497 14.07864922142827
